{
  "type": "FeatureCollection",
  "features": [
    {
      "type": "Feature",
      "properties": {
        "norad_id": 29954,
        "name": "FENGYUN 1C DEB",
        "group": "fengyun-1c-debris",
        "lat": 14.072683453554422,
        "lon": 13.158521601977787,
        "alt_km": 771.9763704873349,
        "timestamp": "2025-12-04T23:34:05.995247+00:00",
        "meta_object_name": "FENGYUN 1C DEB",
        "meta_object_id": "1999-025KC",
        "meta_epoch": "2025-12-04T13:27:21.704832",
        "meta_mean_motion": 14.34172438,
        "meta_eccentricity": 0.0074162,
        "meta_inclination": 100.1511,
        "meta_ra_of_asc_node": 15.2387,
        "meta_arg_of_pericenter": 292.4373,
        "meta_mean_anomaly": 66.8963,
        "meta_ephemeris_type": 0,
        "meta_classification_type": "U",
        "meta_norad_cat_id": 29954,
        "meta_element_set_no": 999,
        "meta_rev_at_epoch": 98070,
        "meta_bstar": 0.0019831,
        "meta_mean_motion_dot": 5.677e-05,
        "meta_mean_motion_ddot": 0,
        "tle_line1": "1 29954U 99025KC  25338.56066788  .00005677  00000+0  19831-2 0  9999",
        "tle_line2": "2 29954 100.1511  15.2387 0074162 292.4373  66.8963 14.34172438980705"
      },
      "geometry": {
        "type": "Point",
        "coordinates": [
          13.158521601977787,
          14.072683453554422
        ]
      }
    },
    {
      "type": "Feature",
      "properties": {
        "norad_id": 29955,
        "name": "FENGYUN 1C DEB",
        "group": "fengyun-1c-debris",
        "lat": -4.39991212683289,
        "lon": 59.757330143000715,
        "alt_km": 767.7420375690226,
        "timestamp": "2025-12-04T23:34:05.995257+00:00",
        "meta_object_name": "FENGYUN 1C DEB",
        "meta_object_id": "1999-025KD",
        "meta_epoch": "2025-12-03T11:08:43.281312",
        "meta_mean_motion": 14.38099788,
        "meta_eccentricity": 0.0007042,
        "meta_inclination": 99.2754,
        "meta_ra_of_asc_node": 57.3996,
        "meta_arg_of_pericenter": 275.1774,
        "meta_mean_anomaly": 147.7914,
        "meta_ephemeris_type": 0,
        "meta_classification_type": "U",
        "meta_norad_cat_id": 29955,
        "meta_element_set_no": 999,
        "meta_rev_at_epoch": 97928,
        "meta_bstar": 0.0022128322,
        "meta_mean_motion_dot": 6.664e-05,
        "meta_mean_motion_ddot": 0,
        "tle_line1": "1 29955U 99025KD  25337.46438983  .00006664  00000+0  22128-2 0  9998",
        "tle_line2": "2 29955  99.2754  57.3996 0007042 275.1774 147.7914 14.38099788979288"
      },
      "geometry": {
        "type": "Point",
        "coordinates": [
          59.757330143000715,
          -4.39991212683289
        ]
      }
    },
    {
      "type": "Feature",
      "properties": {
        "norad_id": 29956,
        "name": "FENGYUN 1C DEB",
        "group": "fengyun-1c-debris",
        "lat": -51.641158872343546,
        "lon": 176.78420283626428,
        "alt_km": 917.5502837527074,
        "timestamp": "2025-12-04T23:34:05.995268+00:00",
        "meta_object_name": "FENGYUN 1C DEB",
        "meta_object_id": "1999-025KE",
        "meta_epoch": "2025-12-04T16:10:26.637024",
        "meta_mean_motion": 14.06168641,
        "meta_eccentricity": 0.0054053,
        "meta_inclination": 98.7926,
        "meta_ra_of_asc_node": 7.7627,
        "meta_arg_of_pericenter": 40.0288,
        "meta_mean_anomaly": 73.7763,
        "meta_ephemeris_type": 0,
        "meta_classification_type": "U",
        "meta_norad_cat_id": 29956,
        "meta_element_set_no": 999,
        "meta_rev_at_epoch": 96936,
        "meta_bstar": 0.00022907,
        "meta_mean_motion_dot": 3.39e-06,
        "meta_mean_motion_ddot": 0,
        "tle_line1": "1 29956U 99025KE  25338.67391941  .00000339  00000+0  22907-3 0  9994",
        "tle_line2": "2 29956  98.7926   7.7627 0054053  40.0288  73.7763 14.06168641969365"
      },
      "geometry": {
        "type": "Point",
        "coordinates": [
          176.78420283626428,
          -51.641158872343546
        ]
      }
    },
    {
      "type": "Feature",
      "properties": {
        "norad_id": 29957,
        "name": "FENGYUN 1C DEB",
        "group": "fengyun-1c-debris",
        "lat": 60.750722636461475,
        "lon": -58.22387968871615,
        "alt_km": 713.6849250607474,
        "timestamp": "2025-12-04T23:34:05.995277+00:00",
        "meta_object_name": "FENGYUN 1C DEB",
        "meta_object_id": "1999-025KF",
        "meta_epoch": "2025-12-04T08:24:34.165152",
        "meta_mean_motion": 14.50613787,
        "meta_eccentricity": 0.0038967,
        "meta_inclination": 98.9213,
        "meta_ra_of_asc_node": 104.8174,
        "meta_arg_of_pericenter": 202.1017,
        "meta_mean_anomaly": 219.6413,
        "meta_ephemeris_type": 0,
        "meta_classification_type": "U",
        "meta_norad_cat_id": 29957,
        "meta_element_set_no": 999,
        "meta_rev_at_epoch": 97370,
        "meta_bstar": 0.012975,
        "meta_mean_motion_dot": 0.00051743,
        "meta_mean_motion_ddot": 0,
        "tle_line1": "1 29957U 99025KF  25338.35039543  .00051743  00000+0  12975-1 0  9994",
        "tle_line2": "2 29957  98.9213 104.8174 0038967 202.1017 219.6413 14.50613787973701"
      },
      "geometry": {
        "type": "Point",
        "coordinates": [
          -58.22387968871615,
          60.750722636461475
        ]
      }
    },
    {
      "type": "Feature",
      "properties": {
        "norad_id": 29958,
        "name": "FENGYUN 1C DEB",
        "group": "fengyun-1c-debris",
        "lat": -31.679281995619103,
        "lon": -1.0211648824010089,
        "alt_km": 815.0855863106708,
        "timestamp": "2025-12-04T23:34:05.995288+00:00",
        "meta_object_name": "FENGYUN 1C DEB",
        "meta_object_id": "1999-025KG",
        "meta_epoch": "2025-12-04T13:31:54.359904",
        "meta_mean_motion": 14.14440273,
        "meta_eccentricity": 0.0054766,
        "meta_inclination": 98.6688,
        "meta_ra_of_asc_node": 353.1707,
        "meta_arg_of_pericenter": 356.7442,
        "meta_mean_anomaly": 3.3367,
        "meta_ephemeris_type": 0,
        "meta_classification_type": "U",
        "meta_norad_cat_id": 29958,
        "meta_element_set_no": 999,
        "meta_rev_at_epoch": 97335,
        "meta_bstar": 0.00057894,
        "meta_mean_motion_dot": 1.082e-05,
        "meta_mean_motion_ddot": 0,
        "tle_line1": "1 29958U 99025KG  25338.56382361  .00001082  00000+0  57894-3 0  9999",
        "tle_line2": "2 29958  98.6688 353.1707 0054766 356.7442   3.3367 14.14440273973354"
      },
      "geometry": {
        "type": "Point",
        "coordinates": [
          -1.0211648824010089,
          -31.679281995619103
        ]
      }
    },
    {
      "type": "Feature",
      "properties": {
        "norad_id": 29959,
        "name": "FENGYUN 1C DEB",
        "group": "fengyun-1c-debris",
        "lat": -0.38596834746782543,
        "lon": -170.20124015951026,
        "alt_km": 905.9547908867762,
        "timestamp": "2025-12-04T23:34:05.995298+00:00",
        "meta_object_name": "FENGYUN 1C DEB",
        "meta_object_id": "1999-025KH",
        "meta_epoch": "2025-12-04T14:45:54.633024",
        "meta_mean_motion": 14.06009027,
        "meta_eccentricity": 0.0041985,
        "meta_inclination": 98.8091,
        "meta_ra_of_asc_node": 9.5019,
        "meta_arg_of_pericenter": 350.9781,
        "meta_mean_anomaly": 133.8139,
        "meta_ephemeris_type": 0,
        "meta_classification_type": "U",
        "meta_norad_cat_id": 29959,
        "meta_element_set_no": 999,
        "meta_rev_at_epoch": 96826,
        "meta_bstar": 0.00037609,
        "meta_mean_motion_dot": 5.78e-06,
        "meta_mean_motion_ddot": 0,
        "tle_line1": "1 29959U 99025KH  25338.61521566  .00000578  00000+0  37609-3 0  9999",
        "tle_line2": "2 29959  98.8091   9.5019 0041985 350.9781 133.8139 14.06009027968263"
      },
      "geometry": {
        "type": "Point",
        "coordinates": [
          -170.20124015951026,
          -0.38596834746782543
        ]
      }
    },
    {
      "type": "Feature",
      "properties": {
        "norad_id": 29960,
        "name": "FENGYUN 1C DEB",
        "group": "fengyun-1c-debris",
        "lat": -33.13099173515694,
        "lon": -29.52082105719765,
        "alt_km": 780.915373656112,
        "timestamp": "2025-12-04T23:34:05.995308+00:00",
        "meta_object_name": "FENGYUN 1C DEB",
        "meta_object_id": "1999-025KJ",
        "meta_epoch": "2025-12-03T22:32:54.141792",
        "meta_mean_motion": 14.16375252,
        "meta_eccentricity": 0.00912875,
        "meta_inclination": 98.6135,
        "meta_ra_of_asc_node": 323.7931,
        "meta_arg_of_pericenter": 311.7921,
        "meta_mean_anomaly": 101.7752,
        "meta_ephemeris_type": 0,
        "meta_classification_type": "U",
        "meta_norad_cat_id": 29960,
        "meta_element_set_no": 999,
        "meta_rev_at_epoch": 97330,
        "meta_bstar": 0.00085568592,
        "meta_mean_motion_dot": 1.727e-05,
        "meta_mean_motion_ddot": 0,
        "tle_line1": "1 29960U 99025KJ  25337.93951553  .00001727  00000+0  85569-3 0  9993",
        "tle_line2": "2 29960  98.6135 323.7931 0091287 311.7921 101.7752 14.16375252973300"
      },
      "geometry": {
        "type": "Point",
        "coordinates": [
          -29.52082105719765,
          -33.13099173515694
        ]
      }
    }
  ]
}